CUBEBUG-2 (LO-74)
1 39440U 13066AA  26183.80423823  .00005629  00000-0  51857-3 0  9997
2 39440  97.8915 132.8497 0056650 337.4394  22.4336 14.93892803679324
FUNCUBE-1 (AO-73)
1 39444U 13066AE  26183.43482957  .00007511  00000-0  46292-3 0  9992
2 39444  97.8285 155.2011 0037288 149.2742 211.0681 15.09675808681965
UWE-3
1 39446U 13066AG  26183.58834462  .00003508  00000-0  30245-3 0  9995
2 39446  97.8709 139.7682 0047193 268.5027  91.0788 14.97137588679882
UNISAT-6
1 40012U 14033C   26183.66405106  .00002775  00000-0  30037-3 0  9993
2 40012  97.7898 336.1049 0045236  19.2407 341.0506 14.88321392648464
DUCHIFAT-1
1 40021U 14033M   26183.10087887  .00143832  00000-0  12875-2 0  9993
2 40021  98.0445 244.3920 0000097 180.5510 179.5749 15.67889029658083
LILACSAT-2
1 40908U 15049K   26183.74942235  .00018467  00000-0  30840-3 0  9990
2 40908  97.4623 221.1860 0007186 180.6292 179.4952 15.51967479598164
CAS-2T & KS-1Q
1 41847U 16066G   26183.68531959  .00001723  00000-0  24772-3 0  9997
2 41847  98.3817 259.2443 0342792  82.6153 281.3850 14.44744917507030
FOX-1B (AO-91)
1 43017U 17073E   26183.15636973  .00007671  00000-0  33553-3 0  9996
2 43017  97.4681  50.0656 0148185 277.0157  81.4241 15.12917223467651
FUNCUBE-3 (EO-79)/QB50P1
1 40025U 14033R   26183.76871566  .00009620  00000-0  46935-3 0  9995
2 40025  98.0961 196.0094 0009438 162.0321 198.1247 15.18500631655394
FOX-1A (AO-85)
1 40967U 15058D   26183.57819337  .00002553  00000-0  23340-3 0  9998
2 40967  64.7737 231.1515 0131455  50.6094 310.6573 14.91033762115865
DIWATA-2B (PO-101)
1 43678U 18084H   26183.77447804  .00002463  00000-0  20028-3 0  9990
2 43678  98.1199  20.6631 0013109 121.7765 238.4736 15.00520268418553
ESHAIL-2
1 43700U 18090A   26183.74643685  .00000155  00000-0  00000+0 0  9995
2 43700   0.0179  33.5273 0002258 103.7662  77.9945  1.00273165 27834
ITASAT-1
1 43786U 18099AE  26183.36904435  .00008093  00000-0  38656-3 0  9990
2 43786  97.4016 234.5787 0010879 302.6059  57.4125 15.19245229415210
FOX-1CLIFF (AO-95)
1 43770U 18099N   26183.60967049  .00011484  00000-0  43514-3 0  9997
2 43770  97.4375 243.8014 0006930 294.3124  65.7391 15.27038658415571
JY1SAT (JO-97)
1 43803U 18099AX  26183.62196426  .00017868  00000-0  54208-3 0  9993
2 43803  97.4118 246.5140 0005651 198.6681 161.4355 15.34152879415996
UWE-4
1 43880U 18111E   26183.74326685  .00032995  00000-0  65109-3 0  9998
2 43880  97.5847 112.8616 0004413 254.2449 105.8314 15.47102682413187
CAS-6 (TO-108)
1 44881U 19093C   26183.72846063  .00000449  00000-0  56701-4 0  9993
2 44881  97.7530 255.5815 0014587  40.5366 319.6933 14.86542629353729
DOSAAF-85 (RS-44)
1 44909U 19096E   26183.64139568  .00000006  00000-0 -28969-4 0  9998
2 44909  82.5226 329.4351 0218530 108.1962 254.3062 12.79748909304326
SALSAT (TUBSAT 22)
1 46495U 20068K   26183.25417132  .00008637  00000-0  29987-3 0  9991
2 46495  97.8847 187.2381 0008038 243.7769 116.2645 15.30013367317667
CAMSAT XW-3 (CAS-9)
1 50466U 21131B   26183.88211128  .00000507  00000-0  17029-3 0  9994
2 50466  98.4992 276.1871 0005191  61.0870 299.0839 14.41371762237372
ROBUSTA 1F (MTCUBE-2)
1 53109U 22080E   26181.72466670 -.00000003  00000-0  00000-0 0  9990
2 53109  70.1437 293.5372 0008959 286.6703  73.2973  6.42583253 92938
UMKA-1 (RS40S)
1 57172U 23091G   26183.75251594  .00006768  00000-0  30755-3 0  9995
2 57172  97.5039 242.3908 0014062  69.5691 290.7053 15.21000770166376
CUBESX-HSE-3 (RS42S)
1 57178U 23091N   26183.72518330  .00014655  00000-0  48145-3 0  9998
2 57178  97.5082 249.5119 0010995  45.3778 314.8358 15.31610991166809
MONITOR-3 (RS58S)
1 57180U 23091Q   26183.71883398  .00011834  00000-0  43274-3 0  9993
2 57180  97.5073 247.2811 0012262  51.9013 308.3330 15.28158205166663
MONITOR-4 (RS57S)
1 57182U 23091S   26183.76250617  .00011045  00000-0  40306-3 0  9999
2 57182  97.5067 247.2971 0012275  52.1792 308.0557 15.28244342166673
MONITOR-2 (RS39S)
1 57184U 23091U   26183.72759359  .00005638  00000-0  27174-3 0  9993
2 57184  97.5060 241.9107 0012430  63.8113 296.4398 15.19055914166318
SVYATOBOR-1 (RS60S)
1 57187U 23091X   26183.72367147  .00010062  00000-0  38324-3 0  9992
2 57187  97.5079 247.6284 0009993  46.7400 313.4671 15.26880993166684
VIZARD-METEO (RS38S)
1 57189U 23091Z   26183.71494574  .00017337  00000-0  48784-3 0  9991
2 57189  97.5084 253.5156 0006913  27.4614 332.6993 15.36524256167070
UTMN-2 (RS27S)
1 57203U 23091AP  26183.73434539  .00014329  00000-0  45928-3 0  9990
2 57203  97.5079 251.1738 0008069  35.0683 325.1088 15.32435845166922
POLYTECH UNIVERSE-3 (RS46S)
1 57191U 23091AB  26183.75270528  .00005905  00000-0  28227-3 0  9997
2 57191  97.5036 241.4399 0016916  77.7441 282.5686 15.19265905166317
